AUTCUBE 2               
1 43681U 18084K   26068.48152820  .00005282  00000+0  33524-3 0  9991
2 43681  98.0799 269.3640 0009685  28.2406 331.9345 15.09319394401889
STARLINK-4080           
1 52835U 22062F   26068.22755011  .00000028  00000+0  19848-4 0  9993
2 52835  53.2190  36.1958 0001438  84.2413 275.8743 15.08836869205710
