[{"OBJECT_NAME":"AUTCUBE 2","OBJECT_ID":"2018-084K","EPOCH":"2026-03-09T11:33:24.036480","MEAN_MOTION":15.09319394,"ECCENTRICITY":0.00096854,"INCLINATION":98.0799,"RA_OF_ASC_NODE":269.364,"ARG_OF_PERICENTER":28.2406,"MEAN_ANOMALY":331.9345,"EPHEMERIS_TYPE":0,"CLASSIFICATION_TYPE":"U","NORAD_CAT_ID":43681,"ELEMENT_SET_NO":999,"REV_AT_EPOCH":40188,"BSTAR":0.00033524122,"MEAN_MOTION_DOT":5.282e-5,"MEAN_MOTION_DDOT":0},{"OBJECT_NAME":"STARLINK-4080","OBJECT_ID":"2022-062F","EPOCH":"2026-03-09T05:27:40.329504","MEAN_MOTION":15.08836869,"ECCENTRICITY":0.00014383,"INCLINATION":53.219,"RA_OF_ASC_NODE":36.1958,"ARG_OF_PERICENTER":84.2413,"MEAN_ANOMALY":275.8743,"EPHEMERIS_TYPE":0,"CLASSIFICATION_TYPE":"U","NORAD_CAT_ID":52835,"ELEMENT_SET_NO":999,"REV_AT_EPOCH":20571,"BSTAR":1.9847808e-5,"MEAN_MOTION_DOT":2.8e-7,"MEAN_MOTION_DDOT":0}]
